[{"OBJECT_NAME":"ONEWEB-0509","OBJECT_ID":"2022-138Q","EPOCH":"2026-01-03T22:45:57.979008","MEAN_MOTION":13.19725995,"ECCENTRICITY":0.0001739,"INCLINATION":87.9224,"RA_OF_ASC_NODE":337.6305,"ARG_OF_PERICENTER":77.8356,"MEAN_ANOMALY":282.2971,"EPHEMERIS_TYPE":0,"CLASSIFICATION_TYPE":"U","NORAD_CAT_ID":54127,"ELEMENT_SET_NO":999,"REV_AT_EPOCH":15514,"BSTAR":6.714e-5,"MEAN_MOTION_DOT":4.0e-7,"MEAN_MOTION_DDOT":0},{"OBJECT_NAME":"ONEWEB-0510","OBJECT_ID":"2022-138R","EPOCH":"2026-01-04T06:28:09.863040","MEAN_MOTION":13.20772298,"ECCENTRICITY":0.00017655,"INCLINATION":87.9226,"RA_OF_ASC_NODE":307.131,"ARG_OF_PERICENTER":94.3835,"MEAN_ANOMALY":265.75,"EPHEMERIS_TYPE":0,"CLASSIFICATION_TYPE":"U","NORAD_CAT_ID":54128,"ELEMENT_SET_NO":999,"REV_AT_EPOCH":15764,"BSTAR":0.00014619985,"MEAN_MOTION_DOT":7.2e-7,"MEAN_MOTION_DDOT":0},{"OBJECT_NAME":"ONEWEB-0511","OBJECT_ID":"2022-138S","EPOCH":"2026-01-03T22:41:25.126944","MEAN_MOTION":13.19725973,"ECCENTRICITY":0.0002038,"INCLINATION":87.9225,"RA_OF_ASC_NODE":337.6345,"ARG_OF_PERICENTER":82.6639,"MEAN_ANOMALY":277.4725,"EPHEMERIS_TYPE":0,"CLASSIFICATION_TYPE":"U","NORAD_CAT_ID":54129,"ELEMENT_SET_NO":999,"REV_AT_EPOCH":15517,"BSTAR":-2.1916e-5,"MEAN_MOTION_DOT":4.0e-8,"MEAN_MOTION_DDOT":0},{"OBJECT_NAME":"ONEWEB-0512","OBJECT_ID":"2022-138T","EPOCH":"2026-01-03T22:30:01.888704","MEAN_MOTION":13.19725044,"ECCENTRICITY":0.0001906,"INCLINATION":87.9214,"RA_OF_ASC_NODE":337.6579,"ARG_OF_PERICENTER":72.8399,"MEAN_ANOMALY":287.2942,"EPHEMERIS_TYPE":0,"CLASSIFICATION_TYPE":"U","NORAD_CAT_ID":54130,"ELEMENT_SET_NO":999,"REV_AT_EPOCH":15514,"BSTAR":-0.0003936,"MEAN_MOTION_DOT":-1.45e-6,"MEAN_MOTION_DDOT":0},{"OBJECT_NAME":"ONEWEB-0513","OBJECT_ID":"2022-138U","EPOCH":"2026-01-03T22:25:22.500480","MEAN_MOTION":13.20260649,"ECCENTRICITY":0.0002362,"INCLINATION":87.9226,"RA_OF_ASC_NODE":337.6175,"ARG_OF_PERICENTER":72.7016,"MEAN_ANOMALY":287.4375,"EPHEMERIS_TYPE":0,"CLASSIFICATION_TYPE":"U","NORAD_CAT_ID":54131,"ELEMENT_SET_NO":999,"REV_AT_EPOCH":15504,"BSTAR":-5.4954e-5,"MEAN_MOTION_DOT":-9.0e-8,"MEAN_MOTION_DDOT":0},{"OBJECT_NAME":"ONEWEB-0514","OBJECT_ID":"2022-138V","EPOCH":"2026-01-03T22:52:47.459712","MEAN_MOTION":13.19725694,"ECCENTRICITY":0.0001782,"INCLINATION":87.9223,"RA_OF_ASC_NODE":337.6414,"ARG_OF_PERICENTER":89.4109,"MEAN_ANOMALY":270.7228,"EPHEMERIS_TYPE":0,"CLASSIFICATION_TYPE":"U","NORAD_CAT_ID":54132,"ELEMENT_SET_NO":999,"REV_AT_EPOCH":15516,"BSTAR":0.00015686,"MEAN_MOTION_DOT":7.6e-7,"MEAN_MOTION_DDOT":0},{"OBJECT_NAME":"ONEWEB-0515","OBJECT_ID":"2022-138W","EPOCH":"2026-01-04T06:09:58.938624","MEAN_MOTION":13.20772024,"ECCENTRICITY":0.00011217,"INCLINATION":87.9229,"RA_OF_ASC_NODE":307.1211,"ARG_OF_PERICENTER":104.6832,"MEAN_ANOMALY":255.4426,"EPHEMERIS_TYPE":0,"CLASSIFICATION_TYPE":"U","NORAD_CAT_ID":54133,"ELEMENT_SET_NO":999,"REV_AT_EPOCH":15766,"BSTAR":0.00016897638,"MEAN_MOTION_DOT":8.2e-7,"MEAN_MOTION_DDOT":0},{"OBJECT_NAME":"ONEWEB-0516","OBJECT_ID":"2022-138X","EPOCH":"2026-01-04T07:22:15.791808","MEAN_MOTION":13.19725508,"ECCENTRICITY":0.00016155,"INCLINATION":87.921,"RA_OF_ASC_NODE":337.5877,"ARG_OF_PERICENTER":77.5484,"MEAN_ANOMALY":282.583,"EPHEMERIS_TYPE":0,"CLASSIFICATION_TYPE":"U","NORAD_CAT_ID":54134,"ELEMENT_SET_NO":999,"REV_AT_EPOCH":15521,"BSTAR":-0.000263415,"MEAN_MOTION_DOT":-9.3e-7,"MEAN_MOTION_DDOT":0},{"OBJECT_NAME":"ONEWEB-0517","OBJECT_ID":"2022-138Y","EPOCH":"2026-01-04T06:52:42.388608","MEAN_MOTION":13.19725207,"ECCENTRICITY":0.00020422,"INCLINATION":87.9224,"RA_OF_ASC_NODE":337.5755,"ARG_OF_PERICENTER":84.2555,"MEAN_ANOMALY":275.881,"EPHEMERIS_TYPE":0,"CLASSIFICATION_TYPE":"U","NORAD_CAT_ID":54135,"ELEMENT_SET_NO":999,"REV_AT_EPOCH":15521,"BSTAR":0.0001372325,"MEAN_MOTION_DOT":6.8e-7,"MEAN_MOTION_DDOT":0},{"OBJECT_NAME":"ONEWEB-0518","OBJECT_ID":"2022-138Z","EPOCH":"2026-01-04T07:20:00.111840","MEAN_MOTION":13.19726283,"ECCENTRICITY":0.00017568,"INCLINATION":87.9211,"RA_OF_ASC_NODE":337.5895,"ARG_OF_PERICENTER":75.2021,"MEAN_ANOMALY":284.9307,"EPHEMERIS_TYPE":0,"CLASSIFICATION_TYPE":"U","NORAD_CAT_ID":54136,"ELEMENT_SET_NO":999,"REV_AT_EPOCH":15521,"BSTAR":0.00014536953,"MEAN_MOTION_DOT":7.1e-7,"MEAN_MOTION_DDOT":0},{"OBJECT_NAME":"ONEWEB-0519","OBJECT_ID":"2022-138AA","EPOCH":"2026-01-03T22:50:29.647392","MEAN_MOTION":13.19725362,"ECCENTRICITY":0.0001979,"INCLINATION":87.9222,"RA_OF_ASC_NODE":337.6326,"ARG_OF_PERICENTER":83.0803,"MEAN_ANOMALY":277.0555,"EPHEMERIS_TYPE":0,"CLASSIFICATION_TYPE":"U","NORAD_CAT_ID":54137,"ELEMENT_SET_NO":999,"REV_AT_EPOCH":15517,"BSTAR":-0.00054088,"MEAN_MOTION_DOT":-2.04e-6,"MEAN_MOTION_DDOT":0},{"OBJECT_NAME":"ONEWEB-0520","OBJECT_ID":"2022-138AB","EPOCH":"2026-01-04T06:57:15.099840","MEAN_MOTION":13.1972464,"ECCENTRICITY":0.00017068,"INCLINATION":87.9226,"RA_OF_ASC_NODE":337.5703,"ARG_OF_PERICENTER":71.8992,"MEAN_ANOMALY":288.2327,"EPHEMERIS_TYPE":0,"CLASSIFICATION_TYPE":"U","NORAD_CAT_ID":54138,"ELEMENT_SET_NO":999,"REV_AT_EPOCH":15520,"BSTAR":-0.00051507177,"MEAN_MOTION_DOT":-1.93e-6,"MEAN_MOTION_DDOT":0},{"OBJECT_NAME":"ONEWEB-0521","OBJECT_ID":"2022-138AC","EPOCH":"2026-01-03T22:39:08.327232","MEAN_MOTION":13.19724864,"ECCENTRICITY":0.0001942,"INCLINATION":87.9222,"RA_OF_ASC_NODE":337.6232,"ARG_OF_PERICENTER":86.8218,"MEAN_ANOMALY":273.3137,"EPHEMERIS_TYPE":0,"CLASSIFICATION_TYPE":"U","NORAD_CAT_ID":54139,"ELEMENT_SET_NO":999,"REV_AT_EPOCH":15510,"BSTAR":-0.00031631,"MEAN_MOTION_DOT":-1.14e-6,"MEAN_MOTION_DDOT":0},{"OBJECT_NAME":"ONEWEB-0522","OBJECT_ID":"2022-138AD","EPOCH":"2026-01-04T07:15:27.432576","MEAN_MOTION":13.19725752,"ECCENTRICITY":0.00017857,"INCLINATION":87.9224,"RA_OF_ASC_NODE":337.5534,"ARG_OF_PERICENTER":76.5394,"MEAN_ANOMALY":283.5938,"EPHEMERIS_TYPE":0,"CLASSIFICATION_TYPE":"U","NORAD_CAT_ID":54140,"ELEMENT_SET_NO":999,"REV_AT_EPOCH":15519,"BSTAR":0.00010216278,"MEAN_MOTION_DOT":5.4e-7,"MEAN_MOTION_DDOT":0},{"OBJECT_NAME":"ONEWEB-0523","OBJECT_ID":"2022-138AE","EPOCH":"2026-01-03T20:46:20.762976","MEAN_MOTION":13.20771218,"ECCENTRICITY":0.00017832,"INCLINATION":87.9224,"RA_OF_ASC_NODE":307.2154,"ARG_OF_PERICENTER":103.9674,"MEAN_ANOMALY":256.1658,"EPHEMERIS_TYPE":0,"CLASSIFICATION_TYPE":"U","NORAD_CAT_ID":54141,"ELEMENT_SET_NO":999,"REV_AT_EPOCH":15761,"BSTAR":7.9591599e-5,"MEAN_MOTION_DOT":4.5e-7,"MEAN_MOTION_DDOT":0},{"OBJECT_NAME":"ONEWEB-0524","OBJECT_ID":"2022-138AF","EPOCH":"2026-01-04T05:35:52.589184","MEAN_MOTION":13.2077174,"ECCENTRICITY":8.932e-5,"INCLINATION":87.9223,"RA_OF_ASC_NODE":307.1437,"ARG_OF_PERICENTER":97.7663,"MEAN_ANOMALY":262.3571,"EPHEMERIS_TYPE":0,"CLASSIFICATION_TYPE":"U","NORAD_CAT_ID":54142,"ELEMENT_SET_NO":999,"REV_AT_EPOCH":15766,"BSTAR":-0.00015149789,"MEAN_MOTION_DOT":-4.9e-7,"MEAN_MOTION_DDOT":0},{"OBJECT_NAME":"ONEWEB-0525","OBJECT_ID":"2022-138AG","EPOCH":"2026-01-03T22:36:51.640704","MEAN_MOTION":13.19725567,"ECCENTRICITY":0.0001743,"INCLINATION":87.9217,"RA_OF_ASC_NODE":337.6439,"ARG_OF_PERICENTER":73.7783,"MEAN_ANOMALY":286.3541,"EPHEMERIS_TYPE":0,"CLASSIFICATION_TYPE":"U","NORAD_CAT_ID":54143,"ELEMENT_SET_NO":999,"REV_AT_EPOCH":15516,"BSTAR":-0.00023994,"MEAN_MOTION_DOT":-8.3e-7,"MEAN_MOTION_DDOT":0},{"OBJECT_NAME":"ONEWEB-0526","OBJECT_ID":"2022-138AH","EPOCH":"2026-01-04T06:41:19.983264","MEAN_MOTION":13.19724579,"ECCENTRICITY":0.00016921,"INCLINATION":87.9225,"RA_OF_ASC_NODE":337.5672,"ARG_OF_PERICENTER":80.7073,"MEAN_ANOMALY":279.4251,"EPHEMERIS_TYPE":0,"CLASSIFICATION_TYPE":"U","NORAD_CAT_ID":54144,"ELEMENT_SET_NO":999,"REV_AT_EPOCH":15518,"BSTAR":-0.00026502895,"MEAN_MOTION_DOT":-9.3e-7,"MEAN_MOTION_DDOT":0},{"OBJECT_NAME":"ONEWEB-0529","OBJECT_ID":"2022-138AJ","EPOCH":"2026-01-03T23:29:10.309056","MEAN_MOTION":13.19725006,"ECCENTRICITY":0.0001686,"INCLINATION":87.9213,"RA_OF_ASC_NODE":337.6515,"ARG_OF_PERICENTER":74.6502,"MEAN_ANOMALY":285.4817,"EPHEMERIS_TYPE":0,"CLASSIFICATION_TYPE":"U","NORAD_CAT_ID":54145,"ELEMENT_SET_NO":999,"REV_AT_EPOCH":15516,"BSTAR":-0.00032481,"MEAN_MOTION_DOT":-1.17e-6,"MEAN_MOTION_DDOT":0},{"OBJECT_NAME":"ONEWEB-0531","OBJECT_ID":"2022-138AK","EPOCH":"2026-01-04T07:04:31.628928","MEAN_MOTION":13.20772432,"ECCENTRICITY":0.00014583,"INCLINATION":87.9226,"RA_OF_ASC_NODE":307.126,"ARG_OF_PERICENTER":110.6655,"MEAN_ANOMALY":249.4635,"EPHEMERIS_TYPE":0,"CLASSIFICATION_TYPE":"U","NORAD_CAT_ID":54146,"ELEMENT_SET_NO":999,"REV_AT_EPOCH":15767,"BSTAR":-0.00018425979,"MEAN_MOTION_DOT":-6.2e-7,"MEAN_MOTION_DDOT":0},{"OBJECT_NAME":"ONEWEB-0535","OBJECT_ID":"2022-138AL","EPOCH":"2026-01-03T22:27:46.734912","MEAN_MOTION":13.19724985,"ECCENTRICITY":0.0001859,"INCLINATION":87.9221,"RA_OF_ASC_NODE":337.6299,"ARG_OF_PERICENTER":93.5862,"MEAN_ANOMALY":266.5483,"EPHEMERIS_TYPE":0,"CLASSIFICATION_TYPE":"U","NORAD_CAT_ID":54147,"ELEMENT_SET_NO":999,"REV_AT_EPOCH":15517,"BSTAR":5.502e-5,"MEAN_MOTION_DOT":3.5e-7,"MEAN_MOTION_DDOT":0},{"OBJECT_NAME":"ONEWEB-0536","OBJECT_ID":"2022-138AM","EPOCH":"2026-01-04T06:46:20.814240","MEAN_MOTION":13.20772523,"ECCENTRICITY":0.00012884,"INCLINATION":87.9216,"RA_OF_ASC_NODE":307.1696,"ARG_OF_PERICENTER":114.582,"MEAN_ANOMALY":245.5447,"EPHEMERIS_TYPE":0,"CLASSIFICATION_TYPE":"U","NORAD_CAT_ID":54148,"ELEMENT_SET_NO":999,"REV_AT_EPOCH":15766,"BSTAR":0.00016584829,"MEAN_MOTION_DOT":8.0e-7,"MEAN_MOTION_DDOT":0},{"OBJECT_NAME":"ONEWEB-0527","OBJECT_ID":"2022-166A","EPOCH":"2026-01-04T06:54:43.842816","MEAN_MOTION":13.21827519,"ECCENTRICITY":0.0001543,"INCLINATION":87.9224,"RA_OF_ASC_NODE":276.6928,"ARG_OF_PERICENTER":73.1913,"MEAN_ANOMALY":286.9391,"EPHEMERIS_TYPE":0,"CLASSIFICATION_TYPE":"U","NORAD_CAT_ID":54642,"ELEMENT_SET_NO":999,"REV_AT_EPOCH":14988,"BSTAR":9.9721693e-5,"MEAN_MOTION_DOT":5.4e-7,"MEAN_MOTION_DDOT":0}]
